STARLINK-31905          
1 59896U 24100M   24172.58335648 -.00034219  00000+0 -57971-3 0  9994
2 59896  43.0008  99.9773 0001926 290.0034 217.7952 15.50591804  4919
STARLINK-31928          
1 59897U 24100N   24172.58335648 -.00040966  00000+0 -69568-3 0  9996
2 59897  43.0008  99.9727 0001278 271.8013 237.9118 15.50597248  4818
STARLINK-31953          
1 59898U 24100P   24172.58335648 -.02193342  00000+0 -42978-1 0  9990
2 59898  43.0008  99.9681 0001565 265.3082 246.2464 15.50161848  4901
STARLINK-31942          
1 59899U 24100Q   24172.58335648  .00005219  00000+0  94893-4 0  9998
2 59899  43.0009  99.9624 0001523 268.0170 245.6166 15.50530325  4904
STARLINK-31676          
1 59900U 24100R   24172.58335648  .00079226  00000+0  13459-2 0  9997
2 59900  43.0009  99.9578 0001507 271.9490 243.5655 15.50510870  4818
STARLINK-31908          
1 59901U 24100S   24172.58335648 -.00028498  00000+0 -48149-3 0  9990
2 59901  43.0008  99.9536 0001822 267.6909 249.6877 15.50590505  4905
STARLINK-31914          
1 59902U 24100T   24172.58335648 -.00091897  00000+0 -15763-2 0  9999
2 59902  43.0007  99.9484 0001178 282.6257 236.6585 15.50628505  4807
STARLINK-31850          
1 59903U 24100U   24172.58335648 -.00021008  00000+0 -35310-3 0  9998
2 59903  43.0009  99.9436 0001733 262.9536 258.2585 15.50587627  4859
STARLINK-31924          
1 59904U 24100V   24172.58335648 -.00028909  00000+0 -48848-3 0  9996
2 59904  43.0009  99.9344 0001901 259.4535 265.5866 15.50593902  4806
STARLINK-31898          
1 59905U 24100W   24172.58335648 -.02187158  00000+0 -47931-1 0  9991
2 59905  43.0009  99.9513 0001270 267.0313 251.1131 15.46998218  4904
STARLINK-31861          
1 59906U 24100X   24172.58335648 -.00034286  00000+0 -58083-3 0  9995
2 59906  43.0009  99.9288 0001676 264.7827 262.1742 15.50594091  4803
STARLINK-31920          
1 59907U 24100Y   24172.58335648 -.00020159  00000+0 -33859-3 0  9994
2 59907  43.0009  99.9238 0001689 260.1825 268.6945 15.50586315  4807
EARTHCARE               
1 59908U 24101A   24172.57077450  .00013348  00000+0  20673-3 0  9999
2 59908  96.9804 300.2667 0005338  97.2570 262.9292 15.54135337  3510
TIANQI 25               
1 59909U 24102A   24172.59027141  .00000134  00000+0  15118-3 0  9992
2 59909  44.9767 254.7307 0010191  58.9217 301.2619 14.09426474  3155
TIANQI 26               
1 59910U 24102B   24172.58620427  .00000137  00000+0  15255-3 0  9994
2 59910  44.9731 254.7004 0010364  64.0876 296.1028 14.09675322  3157
TIANQI 27               
1 59911U 24102C   24172.44969019  .00095486  00000+0  53018-1 0  9991
2 59911  44.9782 255.2531 0008868  70.5586 349.7153 14.10064640  3129
TIANQI 28               
1 59912U 24102D   24172.58102294 -.00000069  00000+0  35961-4 0  9995
2 59912  44.9782 254.6773 0012260  64.4174 295.7928 14.09893306  3146
PROGRESS-MS 27          
1 59913U 24103A   24172.48791663  .00015904  00000+0  29004-3 0  9993
2 59913  51.6399 298.9350 0010535 347.1139  12.9579 15.49560317459068
PAKSAT-MM1              
1 59915U 24104A   24172.52617285  .00000175  00000+0  00000+0 0  9993
2 59915   0.0164 176.5232 0000707 286.5024  33.8235  1.00271694   317
CZ-3B R/B               
1 59916U 24104B   24169.89250387  .00094346  12904-5  32108-2 0  9998
2 59916  26.8022  61.4870 7190339 190.8276 135.2934  2.43764994   457
2024-105A               
1 59917U 24105A   24172.58193338  .00000396  00000+0  28871-4 0  9996
2 59917  97.6026 178.8644 0014378 206.4820 153.5676 15.09216271  3118
2024-105B               
1 59918U 24105B   24172.58250847  .00003183  00000+0  20402-3 0  9994
2 59918  97.6014 178.8639 0012989 215.7140 144.3221 15.09189091  3117
2024-105C               
1 59919U 24105C   24172.57771141  .00004334  00000+0  27267-3 0  9994
2 59919  97.5979 178.8605 0014566 211.8440 148.1910 15.09654056  3118
2024-105D               
1 59920U 24105D   24172.57866026  .00004840  00000+0  30447-3 0  9999
2 59920  97.6045 178.8766 0014508 210.2352 149.8041 15.09598794  3113
2024-105E               
1 59921U 24105E   24172.51257261  .00004159  00000+0  26245-3 0  9993
2 59921  97.5981 178.7941 0014443 210.7293 149.3092 15.09567145  3109
STARLINK-31872          
1 59922U 24106A   24172.58335648 -.01676287  00000+0 -13338-1 0  9995
2 59922  42.9999 306.4773 0001478 279.7623 352.1434 15.73236579  4270
STARLINK-31972          
1 59923U 24106B   24172.58335648 -.01693274  00000+0 -13485-1 0  9994
2 59923  43.0000 306.4711 0001724 289.0743 344.8313 15.73244347  4321
STARLINK-31958          
1 59924U 24106C   24172.58335648 -.01707949  00000+0 -13613-1 0  9993
2 59924  42.9996 306.4666 0001643 286.6386 349.2644 15.73253040  4279
STARLINK-31959          
1 59925U 24106D   24172.58335648 -.01711020  00000+0 -13643-1 0  9992
2 59925  42.9999 306.4610 0001472 267.2266  10.6818 15.73251211  4274
STARLINK-31957          
1 59926U 24106E   24172.58335648 -.02012654  00000+0 -15925-1 0  9996
2 59926  42.9997 306.4562 0001325 291.9374 347.9106 15.73429483  4320
STARLINK-31968          
1 59927U 24106F   24172.58335648 -.01726216  00000+0 -13776-1 0  9994
2 59927  42.9999 306.4512 0001849 283.1133 358.7986 15.73254785  4322
STARLINK-31970          
1 59928U 24106G   24172.58335648 -.01727446  00000+0 -13793-1 0  9990
2 59928  42.9999 306.4458 0001266 283.5665   0.3499 15.73251653  4329
STARLINK-31932          
1 59929U 24106H   24169.57992902 -.01111364  00000+0 -38891-2 0  9991
2 59929  42.9980 323.2282 0002309 255.2609 104.8010 15.90749302  3785
STARLINK-31956          
1 59930U 24106J   24172.58335648 -.01799476  00000+0 -14422-1 0  9995
2 59930  42.9997 306.4404 0001529 300.1374 345.7710 15.73295023  4271
STARLINK-31960          
1 59931U 24106K   24172.58335648 -.01664728  00000+0 -13258-1 0  9993
2 59931  42.9998 306.4353 0002232 297.0479 350.9165 15.73186330  4270
STARLINK-31432          
1 59932U 24106L   24172.58335648 -.01735895  00000+0 -16792-1 0  9994
2 59932  43.0004 306.2316 0001666 279.7779  89.7200 15.68756225  4286
STARLINK-31853          
1 59933U 24106M   24172.58335648 -.01543603  00000+0 -12249-1 0  9992
2 59933  42.9999 306.4249 0001428 284.5070   7.5463 15.73062318  4276
STARLINK-31971          
1 59934U 24106N   24172.58335648 -.01068513  00000+0 -44710-2 0  9994
2 59934  42.9979 304.2711 0001334 279.3276 145.9290 15.87155145  4115
STARLINK-31301          
1 59935U 24106P   24172.58335648 -.01715529  00000+0 -13752-1 0  9992
2 59935  43.0000 306.4148 0001815 286.9328   8.9651 15.73132866  4329
STARLINK-31962          
1 59936U 24106Q   24172.58335648 -.01647025  00000+0 -13171-1 0  9993
2 59936  42.9999 306.4089 0001730 277.3995  20.5447 15.73065546  4276
STARLINK-31879          
1 59937U 24106R   24172.58335648 -.01646021  00000+0 -13174-1 0  9992
2 59937  42.9997 306.3990 0001741 276.3727  25.5988 15.73044288  4320
STARLINK-31876          
1 59938U 24106S   24172.58335648 -.01695397  00000+0 -13589-1 0  9993
2 59938  42.9998 306.4039 0001218 269.2748  30.6462 15.73105613  4278
STARLINK-31955          
1 59939U 24106T   24170.33335648 -.00010693  00000+0 -70285-4 0  9993
2 59939  43.0001 320.0127 0002180 230.3221 270.4056 15.73811620  3971
STARLINK-31946          
1 59940U 24106U   24172.58335648 -.02528072  00000+0 -19661-1 0  9999
2 59940  42.9998 306.3888 0001498 278.8433  26.9606 15.74034533  4326
STARLINK-31948          
1 59941U 24106V   24172.58335648 -.01187012  00000+0 -59859-2 0  9998
2 59941  42.9984 304.6802 0001274 277.4635 346.4559 15.83191999  4271
STARLINK-31900          
1 59942U 24106W   24172.58335648 -.01733697  00000+0 -13980-1 0  9999
2 59942  42.9998 306.3791 0001616 272.6765  37.1865 15.73032125  4272
STARLINK-31973          
1 59943U 24106X   24172.58335648 -.01699706  00000+0 -13691-1 0  9991
2 59943  42.9998 306.3686 0001289 260.5630  53.3199 15.72998763  4277
STARLINK-31966          
1 59944U 24106Y   24172.58335648 -.01660735  00000+0 -13349-1 0  9992
2 59944  42.9998 306.3736 0002033 299.5189  12.3812 15.72968325  4327
STARLINK-11145 [DTC]    
1 59945U 24107A   24172.33335648  .00166185  00000+0  10039-2 0  9998
2 59945  53.1530 108.0203 0001021 127.4544 333.4764 15.76632322  3590
STARLINK-11121 [DTC]    
1 59946U 24107B   24172.58335648  .00035448  00000+0  21997-3 0  9999
2 59946  53.1531 106.7264 0000494 107.4596 356.2379 15.76697766  3680
STARLINK-11113 [DTC]    
1 59947U 24107C   24172.41667824  .00216420  00000+0  78686-3 0  9994
2 59947  53.1515 106.9839 0002029 171.2704 343.1803 15.87390713  3602
STARLINK-11123 [DTC]    
1 59948U 24107D   24172.58335648  .00053473  00000+0  32922-3 0  9999
2 59948  53.1531 106.7025 0000833  99.9804  15.1391 15.76689782  3685
STARLINK-11138 [DTC]    
1 59949U 24107E   24172.58335648 -.00682127  00000+0 -40118-2 0  9991
2 59949  53.1534 106.6075 0001013 107.6609  53.5032 15.79312472  3684
STARLINK-11130 [DTC]    
1 59950U 24107F   24172.58335648 -.00047460  00000+0 -28729-3 0  9993
2 59950  53.1556 106.6559 0000634 112.5996  25.3279 15.76753475  3622
STARLINK-11126 [DTC]    
1 59951U 24107G   24172.58335648 -.00006206  00000+0 -33900-4 0  9995
2 59951  53.1544 106.6320 0001429 215.9016 293.4117 15.76755630  3680
STARLINK-11124 [DTC]    
1 59952U 24107H   24172.58335648 -.00042440  00000+0 -25642-3 0  9999
2 59952  53.1531 106.6087 0000153  37.2838 123.4914 15.76746160  3693
STARLINK-11143 [DTC]    
1 59953U 24107J   24172.58335648  .00009872  00000+0  64103-4 0  9996
2 59953  53.1527 106.5855 0001557  76.7690  95.3285 15.76779502  3621
STARLINK-11133 [DTC]    
1 59954U 24107K   24172.58335648  .00130830  00000+0  79172-3 0  9997
2 59954  53.1535 106.5620 0001304  44.3113 139.0829 15.76711083  3622
